{"fetched_at":"2026-04-16T17:13:58Z","count":4884,"tles":[{"name":"TRANSPORTER-16 OBJECT CK","line1":"1 68497U 26067CK  26103.92084177  .00001609  00000+0  16464-3 0  9994","line2":"2 68497  97.7542  63.1928 0002475 118.3185 241.8284 14.91898012  2143","category":"Other"}]}